{
  "norad_id": 65539,
  "name": "STARLINK-35110",
  "history": [
    {
      "epoch": "2026-05-03T17:02:26.212704Z",
      "apogee_km": 550.069348453736,
      "perigee_km": 548.9304449479177,
      "latitude_deg": 8.083939764119618e-05,
      "longitude_deg": 76.81145983085813,
      "height_km": 552.7286660074556,
      "semi_major_axis_km": 6927.636896700827,
      "eccentricity": 8.22e-05,
      "inclination_deg": 97.5385,
      "raan_deg": 194.0305,
      "arg_perigee_deg": 106.6252,
      "mean_anomaly_deg": 253.5066,
      "mean_motion_rev_day": 15.0565367
    },
    {
      "epoch": "2026-05-04T18:33:38.164032Z",
      "apogee_km": 549.840372534396,
      "perigee_km": 549.144838522001,
      "latitude_deg": 4.203353214048945e-05,
      "longitude_deg": 54.00169550318239,
      "height_km": 552.6471620822326,
      "semi_major_axis_km": 6927.629605528198,
      "eccentricity": 5.02e-05,
      "inclination_deg": 97.5331,
      "raan_deg": 195.0686,
      "arg_perigee_deg": 104.673,
      "mean_anomaly_deg": 255.4553,
      "mean_motion_rev_day": 15.05656047
    },
    {
      "epoch": "2026-05-05T20:04:50.351232Z",
      "apogee_km": 550.0804120197781,
      "perigee_km": 548.897173534373,
      "latitude_deg": 2.4687795261262118e-06,
      "longitude_deg": 31.192045376736946,
      "height_km": 552.3725567822074,
      "semi_major_axis_km": 6927.625792777076,
      "eccentricity": 8.54e-05,
      "inclination_deg": 97.5275,
      "raan_deg": 196.1078,
      "arg_perigee_deg": 72.0531,
      "mean_anomaly_deg": 288.0789,
      "mean_motion_rev_day": 15.0565729
    },
    {
      "epoch": "2026-05-06T18:24:38.633184Z",
      "apogee_km": 549.9883877730208,
      "perigee_km": 549.0545394121273,
      "latitude_deg": -3.363038427079133e-05,
      "longitude_deg": 56.23260803374344,
      "height_km": 552.656467109916,
      "semi_major_axis_km": 6927.658463592574,
      "eccentricity": 6.74e-05,
      "inclination_deg": 97.5257,
      "raan_deg": 197.0166,
      "arg_perigee_deg": 98.45,
      "mean_anomaly_deg": 261.6803,
      "mean_motion_rev_day": 15.05646639
    },
    {
      "epoch": "2026-05-07T18:20:08.381760Z",
      "apogee_km": 549.9824196343625,
      "perigee_km": 549.0111653766526,
      "latitude_deg": -4.765313394521977e-06,
      "longitude_deg": 57.34918634389748,
      "height_km": 552.9617978204006,
      "semi_major_axis_km": 6927.633792505507,
      "eccentricity": 7.01e-05,
      "inclination_deg": 97.5237,
      "raan_deg": 197.9897,
      "arg_perigee_deg": 145.0542,
      "mean_anomaly_deg": 215.0731,
      "mean_motion_rev_day": 15.05654682
    },
    {
      "epoch": "2026-05-08T16:39:56.138400Z",
      "apogee_km": 549.8322398642104,
      "perigee_km": 549.1519466872505,
      "latitude_deg": 5.967263945726757e-05,
      "longitude_deg": 82.38823137338603,
      "height_km": 552.8659580461875,
      "semi_major_axis_km": 6927.62909327573,
      "eccentricity": 4.91e-05,
      "inclination_deg": 97.52,
      "raan_deg": 198.8948,
      "arg_perigee_deg": 154.3228,
      "mean_anomaly_deg": 205.8024,
      "mean_motion_rev_day": 15.05656214
    },
    {
      "epoch": "2026-05-09T18:11:08.240064Z",
      "apogee_km": 550.0066229220938,
      "perigee_km": 548.993802361605,
      "latitude_deg": -9.237351364238984e-07,
      "longitude_deg": 59.57384305765879,
      "height_km": 552.9208929768076,
      "semi_major_axis_km": 6927.637212641849,
      "eccentricity": 7.31e-05,
      "inclination_deg": 97.5136,
      "raan_deg": 199.9289,
      "arg_perigee_deg": 134.2944,
      "mean_anomaly_deg": 225.8343,
      "mean_motion_rev_day": 15.05653567
    },
    {
      "epoch": "2026-05-10T18:06:38.212416Z",
      "apogee_km": 549.764460136159,
      "perigee_km": 549.2130211272042,
      "latitude_deg": -2.1531807564247622e-05,
      "longitude_deg": 60.683995197704434,
      "height_km": 552.3588633677151,
      "semi_major_axis_km": 6927.625740631682,
      "eccentricity": 3.98e-05,
      "inclination_deg": 97.5082,
      "raan_deg": 200.8965,
      "arg_perigee_deg": 315.9447,
      "mean_anomaly_deg": 44.1748,
      "mean_motion_rev_day": 15.05657307
    },
    {
      "epoch": "2026-05-11T05:16:32.277792Z",
      "apogee_km": 549.8723809696476,
      "perigee_km": 549.1171305556345,
      "latitude_deg": -7.821484508106756e-05,
      "longitude_deg": -106.79160105214329,
      "height_km": 552.9118729948796,
      "semi_major_axis_km": 6927.631755762641,
      "eccentricity": 5.451e-05,
      "inclination_deg": 97.5057,
      "raan_deg": 201.3547,
      "arg_perigee_deg": 157.6918,
      "mean_anomaly_deg": 202.4332,
      "mean_motion_rev_day": 15.05655346
    },
    {
      "epoch": "2026-05-12T03:36:20.088000Z",
      "apogee_km": 549.6030923335375,
      "perigee_km": 549.3597943738059,
      "latitude_deg": 8.814837980733402e-06,
      "longitude_deg": -81.75258001681875,
      "height_km": 552.6580777887638,
      "semi_major_axis_km": 6927.618443353671,
      "eccentricity": 1.756e-05,
      "inclination_deg": 97.5048,
      "raan_deg": 202.26,
      "arg_perigee_deg": 206.9021,
      "mean_anomaly_deg": 153.2197,
      "mean_motion_rev_day": 15.05659686
    },
    {
      "epoch": "2026-05-13T14:41:44.107584Z",
      "apogee_km": 549.8847048272119,
      "perigee_km": 549.088028140065,
      "latitude_deg": 4.342601527199716e-06,
      "longitude_deg": 111.87694449063052,
      "height_km": 552.8273252227658,
      "semi_major_axis_km": 6927.623366483638,
      "eccentricity": 5.75e-05,
      "inclination_deg": 97.5015,
      "raan_deg": 203.6807,
      "arg_perigee_deg": 226.8975,
      "mean_anomaly_deg": 133.2204,
      "mean_motion_rev_day": 15.05658081
    }
  ]
}